STARLINK-1169           
1 45061U 20006T   26046.32175792  .00003203  00000+0  12325-3 0  9991
2 45061  53.1564  24.8901 0001475  87.9805 272.1364 15.29365740333129
STARLINK-1171           
1 45062U 20006U   26046.91668981  .00070168  00000+0  10943-2 0  9991
2 45062  53.0483 354.8419 0002422 325.0735 306.0184 15.53226721  5978
STARLINK-1133           
1 45064U 20006W   26046.26251579  .00017516  00000+0  60342-3 0  9999
2 45064  53.1623   1.9769 0002130  75.7694 284.3543 15.30129470333445
STARLINK-1167           
1 45071U 20006AD  26046.14743287  .00005845  00000+0  21470-3 0  9997
2 45071  53.1623   2.4264 0001462  69.4190 290.6967 15.29361767333420
STARLINK-1168           
1 45072U 20006AE  26046.87609577  .00000495  00000+0  29501-4 0  9991
2 45072  53.1613 359.0989 0001707 112.9433 247.1748 15.29350399333536
STARLINK-1172           
1 45074U 20006AG  26046.89244268  .00030315  00000+0  10292-2 0  9996
2 45074  53.1595 359.0719 0001590  93.8124 266.3059 15.30272359333531
STARLINK-1153           
1 45080U 20006AN  26046.19719153 -.00000737  00000+0 -13219-4 0  9997
2 45080  53.1613   2.1130 0001446  79.8436 280.2727 15.29358552333436
STARLINK-1151           
1 45081U 20006AP  26046.84741245  .00087562  00000+0  12573-2 0  9996
2 45081  53.0531 346.1104 0012764  73.5220 286.7192 15.55309734333719
STARLINK-1185           
1 45087U 20006AV  26046.91668981  .00518175  00000+0  19835-1 0  9991
2 45087  53.1346 343.3613 0001538  87.8709 111.1013 15.24103950  5853
STARLINK-1183           
1 45088U 20006AW  26046.91668981  .00949284  00000+0  36186-1 0  9999
2 45088  53.1290 343.5835 0001483  87.6672 229.1153 15.23570288  5784
STARLINK-1152           
1 45096U 20006BE  26046.74907910  .00068250  00000+0  19340-2 0  9996
2 45096  53.0413 309.7386 0007461 115.5183 244.6591 15.35628595334213
STARLINK-1184           
1 45098U 20006BG  26046.22570668  .00032543  00000+0  20149-2 0  9992
2 45098  53.0548 346.8017 0005939  72.4933 287.6706 15.09518123333646
STARLINK-1193           
1 45100U 20006BJ  26046.91668981  .00053624  00000+0  99629-3 0  9991
2 45100  53.0547 335.1472 0005397 122.5007  91.1107 15.48399785  5869
STARLINK-1143           
1 45179U 20012B   26046.39518586  .00041083  00000+0  56157-3 0  9996
2 45179  53.0475  78.4646 0004702 354.7342   5.3618 15.57049007332445
STARLINK-1202           
1 45183U 20012F   26046.74273622  .00006876  00000+0  24393-3 0  9997
2 45183  53.1599 141.1916 0001258  89.2829 270.8316 15.30217529331595
STARLINK-1216           
1 45185U 20012H   26046.66794429  .00004970  00000+0  17979-3 0  9998
2 45185  53.1621 141.5171 0001295  82.8238 277.2910 15.30202456331521
