[{"OBJECT_NAME":"STARLINK-1169","OBJECT_ID":"2020-006T","EPOCH":"2026-02-15T07:43:19.884288","MEAN_MOTION":15.2936574,"ECCENTRICITY":0.00014754,"INCLINATION":53.1564,"RA_OF_ASC_NODE":24.8901,"ARG_OF_PERICENTER":87.9805,"MEAN_ANOMALY":272.1364,"EPHEMERIS_TYPE":0,"CLASSIFICATION_TYPE":"U","NORAD_CAT_ID":45061,"ELEMENT_SET_NO":999,"REV_AT_EPOCH":33312,"BSTAR":0.00012325252,"MEAN_MOTION_DOT":3.203e-5,"MEAN_MOTION_DDOT":0},{"OBJECT_NAME":"STARLINK-1171","OBJECT_ID":"2020-006U","EPOCH":"2026-02-15T22:00:01.999584","MEAN_MOTION":15.53226721,"ECCENTRICITY":0.00024229,"INCLINATION":53.0483,"RA_OF_ASC_NODE":354.8419,"ARG_OF_PERICENTER":325.0735,"MEAN_ANOMALY":306.0184,"EPHEMERIS_TYPE":0,"CLASSIFICATION_TYPE":"U","NORAD_CAT_ID":45062,"ELEMENT_SET_NO":999,"REV_AT_EPOCH":597,"BSTAR":0.0010943184,"MEAN_MOTION_DOT":0.00070168,"MEAN_MOTION_DDOT":0},{"OBJECT_NAME":"STARLINK-1133","OBJECT_ID":"2020-006W","EPOCH":"2026-02-15T06:18:01.364256","MEAN_MOTION":15.3012947,"ECCENTRICITY":0.000213,"INCLINATION":53.1623,"RA_OF_ASC_NODE":1.9769,"ARG_OF_PERICENTER":75.7694,"MEAN_ANOMALY":284.3543,"EPHEMERIS_TYPE":0,"CLASSIFICATION_TYPE":"U","NORAD_CAT_ID":45064,"ELEMENT_SET_NO":999,"REV_AT_EPOCH":33344,"BSTAR":0.00060342,"MEAN_MOTION_DOT":0.00017516,"MEAN_MOTION_DDOT":0},{"OBJECT_NAME":"STARLINK-1167","OBJECT_ID":"2020-006AD","EPOCH":"2026-02-15T03:32:18.199968","MEAN_MOTION":15.29361767,"ECCENTRICITY":0.00014628,"INCLINATION":53.1623,"RA_OF_ASC_NODE":2.4264,"ARG_OF_PERICENTER":69.419,"MEAN_ANOMALY":290.6967,"EPHEMERIS_TYPE":0,"CLASSIFICATION_TYPE":"U","NORAD_CAT_ID":45071,"ELEMENT_SET_NO":999,"REV_AT_EPOCH":33342,"BSTAR":0.00021469929,"MEAN_MOTION_DOT":5.845e-5,"MEAN_MOTION_DDOT":0},{"OBJECT_NAME":"STARLINK-1168","OBJECT_ID":"2020-006AE","EPOCH":"2026-02-15T21:01:34.674528","MEAN_MOTION":15.29350399,"ECCENTRICITY":0.00017079,"INCLINATION":53.1613,"RA_OF_ASC_NODE":359.0989,"ARG_OF_PERICENTER":112.9433,"MEAN_ANOMALY":247.1748,"EPHEMERIS_TYPE":0,"CLASSIFICATION_TYPE":"U","NORAD_CAT_ID":45072,"ELEMENT_SET_NO":999,"REV_AT_EPOCH":33353,"BSTAR":2.9500797e-5,"MEAN_MOTION_DOT":4.95e-6,"MEAN_MOTION_DDOT":0},{"OBJECT_NAME":"STARLINK-1172","OBJECT_ID":"2020-006AG","EPOCH":"2026-02-15T21:25:07.047552","MEAN_MOTION":15.30272359,"ECCENTRICITY":0.00015904,"INCLINATION":53.1595,"RA_OF_ASC_NODE":359.0719,"ARG_OF_PERICENTER":93.8124,"MEAN_ANOMALY":266.3059,"EPHEMERIS_TYPE":0,"CLASSIFICATION_TYPE":"U","NORAD_CAT_ID":45074,"ELEMENT_SET_NO":999,"REV_AT_EPOCH":33353,"BSTAR":0.0010291814,"MEAN_MOTION_DOT":0.00030315,"MEAN_MOTION_DDOT":0},{"OBJECT_NAME":"STARLINK-1153","OBJECT_ID":"2020-006AN","EPOCH":"2026-02-15T04:43:57.348192","MEAN_MOTION":15.29358552,"ECCENTRICITY":0.0001446,"INCLINATION":53.1613,"RA_OF_ASC_NODE":2.113,"ARG_OF_PERICENTER":79.8436,"MEAN_ANOMALY":280.2727,"EPHEMERIS_TYPE":0,"CLASSIFICATION_TYPE":"U","NORAD_CAT_ID":45080,"ELEMENT_SET_NO":999,"REV_AT_EPOCH":33343,"BSTAR":-1.3219e-5,"MEAN_MOTION_DOT":-7.37e-6,"MEAN_MOTION_DDOT":0},{"OBJECT_NAME":"STARLINK-1151","OBJECT_ID":"2020-006AP","EPOCH":"2026-02-15T20:20:16.435680","MEAN_MOTION":15.55309734,"ECCENTRICITY":0.00127642,"INCLINATION":53.0531,"RA_OF_ASC_NODE":346.1104,"ARG_OF_PERICENTER":73.522,"MEAN_ANOMALY":286.7192,"EPHEMERIS_TYPE":0,"CLASSIFICATION_TYPE":"U","NORAD_CAT_ID":45081,"ELEMENT_SET_NO":999,"REV_AT_EPOCH":33371,"BSTAR":0.0012573239,"MEAN_MOTION_DOT":0.00087562,"MEAN_MOTION_DDOT":0},{"OBJECT_NAME":"STARLINK-1185","OBJECT_ID":"2020-006AV","EPOCH":"2026-02-15T22:00:01.999584","MEAN_MOTION":15.2410395,"ECCENTRICITY":0.00015386,"INCLINATION":53.1346,"RA_OF_ASC_NODE":343.3613,"ARG_OF_PERICENTER":87.8709,"MEAN_ANOMALY":111.1013,"EPHEMERIS_TYPE":0,"CLASSIFICATION_TYPE":"U","NORAD_CAT_ID":45087,"ELEMENT_SET_NO":999,"REV_AT_EPOCH":585,"BSTAR":0.019834579,"MEAN_MOTION_DOT":0.00518175,"MEAN_MOTION_DDOT":0},{"OBJECT_NAME":"STARLINK-1183","OBJECT_ID":"2020-006AW","EPOCH":"2026-02-15T22:00:01.999584","MEAN_MOTION":15.23570288,"ECCENTRICITY":0.00014839,"INCLINATION":53.129,"RA_OF_ASC_NODE":343.5835,"ARG_OF_PERICENTER":87.6672,"MEAN_ANOMALY":229.1153,"EPHEMERIS_TYPE":0,"CLASSIFICATION_TYPE":"U","NORAD_CAT_ID":45088,"ELEMENT_SET_NO":999,"REV_AT_EPOCH":578,"BSTAR":0.036186131,"MEAN_MOTION_DOT":0.00949284,"MEAN_MOTION_DDOT":0},{"OBJECT_NAME":"STARLINK-1152","OBJECT_ID":"2020-006BE","EPOCH":"2026-02-15T17:58:40.434240","MEAN_MOTION":15.35628595,"ECCENTRICITY":0.00074619,"INCLINATION":53.0413,"RA_OF_ASC_NODE":309.7386,"ARG_OF_PERICENTER":115.5183,"MEAN_ANOMALY":244.6591,"EPHEMERIS_TYPE":0,"CLASSIFICATION_TYPE":"U","NORAD_CAT_ID":45096,"ELEMENT_SET_NO":999,"REV_AT_EPOCH":33421,"BSTAR":0.0019340422,"MEAN_MOTION_DOT":0.0006825,"MEAN_MOTION_DDOT":0},{"OBJECT_NAME":"STARLINK-1184","OBJECT_ID":"2020-006BG","EPOCH":"2026-02-15T05:25:01.057152","MEAN_MOTION":15.09518123,"ECCENTRICITY":0.0005939,"INCLINATION":53.0548,"RA_OF_ASC_NODE":346.8017,"ARG_OF_PERICENTER":72.4933,"MEAN_ANOMALY":287.6706,"EPHEMERIS_TYPE":0,"CLASSIFICATION_TYPE":"U","NORAD_CAT_ID":45098,"ELEMENT_SET_NO":999,"REV_AT_EPOCH":33364,"BSTAR":0.0020149,"MEAN_MOTION_DOT":0.00032543,"MEAN_MOTION_DDOT":0},{"OBJECT_NAME":"STARLINK-1193","OBJECT_ID":"2020-006BJ","EPOCH":"2026-02-15T22:00:01.999584","MEAN_MOTION":15.48399785,"ECCENTRICITY":0.00053973,"INCLINATION":53.0547,"RA_OF_ASC_NODE":335.1472,"ARG_OF_PERICENTER":122.5007,"MEAN_ANOMALY":91.1107,"EPHEMERIS_TYPE":0,"CLASSIFICATION_TYPE":"U","NORAD_CAT_ID":45100,"ELEMENT_SET_NO":999,"REV_AT_EPOCH":586,"BSTAR":0.00099628764,"MEAN_MOTION_DOT":0.00053624,"MEAN_MOTION_DDOT":0},{"OBJECT_NAME":"STARLINK-1143","OBJECT_ID":"2020-012B","EPOCH":"2026-02-15T09:29:04.058304","MEAN_MOTION":15.57049007,"ECCENTRICITY":0.00047027,"INCLINATION":53.0475,"RA_OF_ASC_NODE":78.4646,"ARG_OF_PERICENTER":354.7342,"MEAN_ANOMALY":5.3618,"EPHEMERIS_TYPE":0,"CLASSIFICATION_TYPE":"U","NORAD_CAT_ID":45179,"ELEMENT_SET_NO":999,"REV_AT_EPOCH":33244,"BSTAR":0.00056157344,"MEAN_MOTION_DOT":0.00041083,"MEAN_MOTION_DDOT":0},{"OBJECT_NAME":"STARLINK-1202","OBJECT_ID":"2020-012F","EPOCH":"2026-02-15T17:49:32.409408","MEAN_MOTION":15.30217529,"ECCENTRICITY":0.00012581,"INCLINATION":53.1599,"RA_OF_ASC_NODE":141.1916,"ARG_OF_PERICENTER":89.2829,"MEAN_ANOMALY":270.8316,"EPHEMERIS_TYPE":0,"CLASSIFICATION_TYPE":"U","NORAD_CAT_ID":45183,"ELEMENT_SET_NO":999,"REV_AT_EPOCH":33159,"BSTAR":0.00024392622,"MEAN_MOTION_DOT":6.876e-5,"MEAN_MOTION_DDOT":0},{"OBJECT_NAME":"STARLINK-1216","OBJECT_ID":"2020-012H","EPOCH":"2026-02-15T16:01:50.386656","MEAN_MOTION":15.30202456,"ECCENTRICITY":0.00012958,"INCLINATION":53.1621,"RA_OF_ASC_NODE":141.5171,"ARG_OF_PERICENTER":82.8238,"MEAN_ANOMALY":277.291,"EPHEMERIS_TYPE":0,"CLASSIFICATION_TYPE":"U","NORAD_CAT_ID":45185,"ELEMENT_SET_NO":999,"REV_AT_EPOCH":33152,"BSTAR":0.00017978992,"MEAN_MOTION_DOT":4.97e-5,"MEAN_MOTION_DDOT":0}]
